{
    "links": {
        "self": "http://www.neowsapp.com/rest/v1/neo/3341200?api_key=iIulBulltgU6a56xZRHN4H3l9WmuAYTsLGpBGhQ2"
    },
    "id": "3341200",
    "neo_reference_id": "3341200",
    "name": "(2006 RK1)",
    "designation": "2006 RK1",
    "nasa_jpl_url": "http://ssd.jpl.nasa.gov/sbdb.cgi?sstr=3341200",
    "absolute_magnitude_h": 21.8,
    "estimated_diameter": {
        "kilometers": {
            "estimated_diameter_min": 0.1160259082,
            "estimated_diameter_max": 0.2594418179
        },
        "meters": {
            "estimated_diameter_min": 116.0259082094,
            "estimated_diameter_max": 259.4418179074
        },
        "miles": {
            "estimated_diameter_min": 0.0720951346,
            "estimated_diameter_max": 0.1612096218
        },
        "feet": {
            "estimated_diameter_min": 380.6624406898,
            "estimated_diameter_max": 851.1870938635
        }
    },
    "is_potentially_hazardous_asteroid": true,
    "close_approach_data": [
        {
            "close_approach_date": "1919-05-17",
            "close_approach_date_full": "1919-May-17 00:23",
            "epoch_date_close_approach": -1597707420000,
            "relative_velocity": {
                "kilometers_per_second": "12.6953525292",
                "kilometers_per_hour": "45703.2691051733",
                "miles_per_hour": "28398.2340726006"
            },
            "miss_distance": {
                "astronomical": "0.1889131126",
                "lunar": "73.4872008014",
                "kilometers": "28260999.260030162",
                "miles": "17560570.6457017556"
            },
            "orbiting_body": "Earth"
        },
        {
            "close_approach_date": "2006-08-27",
            "close_approach_date_full": "2006-Aug-27 04:18",
            "epoch_date_close_approach": 1156652280000,
            "relative_velocity": {
                "kilometers_per_second": "13.5173638981",
                "kilometers_per_hour": "48662.5100332244",
                "miles_per_hour": "30236.9913036999"
            },
            "miss_distance": {
                "astronomical": "0.0831410113",
                "lunar": "32.3418533957",
                "kilometers": "12437718.200125931",
                "miles": "7728439.7170466078"
            },
            "orbiting_body": "Earth"
        },
        {
            "close_approach_date": "2085-08-03",
            "close_approach_date_full": "2085-Aug-03 21:25",
            "epoch_date_close_approach": 3647712300000,
            "relative_velocity": {
                "kilometers_per_second": "9.7513243144",
                "kilometers_per_hour": "35104.7675318414",
                "miles_per_hour": "21812.7373588822"
            },
            "miss_distance": {
                "astronomical": "0.0901174158",
                "lunar": "35.0556747462",
                "kilometers": "13481373.453584346",
                "miles": "8376937.0203261348"
            },
            "orbiting_body": "Earth"
        }
    ],
    "orbital_data": {
        "orbit_id": "12",
        "orbit_determination_date": "2017-04-06 09:08:11",
        "first_observation_date": "2006-09-12",
        "last_observation_date": "2006-09-30",
        "data_arc_in_days": 18,
        "observations_used": 45,
        "orbit_uncertainty": "7",
        "minimum_orbit_intersection": ".0258775",
        "jupiter_tisserand_invariant": "3.702",
        "epoch_osculation": "2459000.5",
        "eccentricity": ".5173607553804144",
        "semi_major_axis": "1.949196688741254",
        "inclination": "9.569366685066832",
        "ascending_node_longitude": "153.7447847666133",
        "orbital_period": "993.9897918664419",
        "perihelion_distance": ".9407588174690765",
        "perihelion_argument": "131.877754706163",
        "aphelion_distance": "2.957634560013432",
        "perihelion_time": "2458912.530724490142",
        "mean_anomaly": "31.86042698092818",
        "mean_motion": ".3621767576948835",
        "equinox": "J2000",
        "orbit_class": {
            "orbit_class_type": "APO",
            "orbit_class_description": "Near-Earth asteroid orbits which cross the Earth’s orbit similar to that of 1862 Apollo",
            "orbit_class_range": "a (semi-major axis) > 1.0 AU; q (perihelion) < 1.017 AU"
        }
    },
    "is_sentry_object": false
}